QIANFAN-49              
1 62250U 24232P   26018.57617095  .00000028  00000+0  24592-4 0  9990
2 62250  88.9999  37.5152 0016162  89.2392 271.0611 13.50983633 72818
QIANFAN-50              
1 62251U 24232Q   26018.60091412  .00000038  00000+0  39269-4 0  9992
2 62251  89.0005  37.5229 0017825  90.3373 269.9820 13.50980463 72842
QIANFAN-51              
1 62252U 24232R   26018.58441895  .00000038  00000+0  40357-4 0  9994
2 62252  88.9998  37.5162 0015312  93.6374 266.6529 13.50983076 72836
QIANFAN-52              
1 62253U 24232S   26018.61327828  .00000027  00000+0  22923-4 0  9995
2 62253  88.9995  37.3854 0017309  86.6977 273.6154 13.50981058 72929
QIANFAN-53              
1 62254U 24232T   26018.59262201  .00000040  00000+0  42834-4 0  9994
2 62254  89.0002  37.4948 0016194  87.7858 272.5148 13.50983719 72889
QIANFAN-54              
1 62255U 24232U   26018.55968268  .00000052  00000+0  61726-4 0  9991
2 62255  88.9993  37.1732 0003867 111.3020 248.8545 13.50984200104387
QIANFAN-55              
1 62785U 25016A   26018.58563667  .00000160  00000+0  22910-3 0  9998
2 62785  88.9765  99.4090 0016067 236.9014 123.0596 13.50988026 52161
QIANFAN-56              
1 62786U 25016B   26018.60208704  .00000138  00000+0  19554-3 0  9995
2 62786  88.9738  99.2338 0014662 238.9587 121.0125 13.50990276 52213
